STARLINK-6213           
1 56891U 23083R   26188.21893669 -.00000915  00000+0 -23721-4 0  9999
2 56891  43.0020 129.9144 0001139 253.8973 106.1753 15.27573755169917
STARLINK-6219           
1 56892U 23083S   26188.20317384 -.00001364  00000+0 -40088-4 0  9998
2 56892  43.0035 134.0658 0001207 262.8394  97.2320 15.27560946169866
STARLINK-6216           
1 56893U 23083T   26188.02661432 -.00000373  00000+0 -40236-5 0  9990
2 56893  43.0035 131.0511 0001310 261.7178  98.3525 15.27587048170004
STARLINK-6144           
1 56894U 23083U   26188.17360605 -.00009940  00000+0 -35191-3 0  9996
2 56894  43.0032 133.8470 0000973 232.0210 128.0554 15.27604907169980
STARLINK-6208           
1 56895U 23083V   26187.21849947  .00000277  00000+0  19608-4 0  9990
2 56895  43.0012 139.5758 0001585 261.5987  98.4684 15.27577534169719
STARLINK-6202           
1 56896U 23083W   26187.28004625 -.00000901  00000+0 -23246-4 0  9993
2 56896  43.0024 139.1749 0001318 263.2491  96.8210 15.27564176169830
STARLINK-6200           
1 56897U 23083X   26188.25828341  .00005000  00000+0  19129-3 0  9998
2 56897  42.9994 133.6200 0000293 296.7096  63.3725 15.27540982169984
STARLINK-6205           
1 56898U 23083Y   26188.19130032 -.00000130  00000+0  47728-5 0  9993
2 56898  42.9980 127.1548 0000101 182.5809 177.5043 15.27582221170058
STARLINK-6203           
1 56899U 23083Z   26188.21171014 -.00012666  00000+0 -45100-3 0  9990
2 56899  43.0027 126.4525 0001341 263.1342  96.9358 15.27619109170054
STARLINK-6207           
1 56900U 23083AA  26188.21189055 -.00002189  00000+0 -70121-4 0  9998
2 56900  43.0024 116.0227 0001128 273.0604  87.0119 15.27555100170047
STARLINK-6185           
1 56901U 23083AB  26188.18358794 -.00001164  00000+0 -32786-4 0  9990
2 56901  43.0015 127.0959 0001304 267.4784  92.5919 15.27569058170051
STARLINK-6195           
1 56902U 23083AC  26187.95289381 -.00007453  00000+0 -26147-3 0  9990
2 56902  43.0022 117.5117 0001727 261.9210  98.1446 15.27593742170146
STARLINK-6192           
1 56903U 23083AD  26188.15660135 -.00000870  00000+0 -22079-4 0  9991
2 56903  43.0038 126.8934 0001754 267.9108  92.1543 15.27569003170051
STARLINK-6193           
1 56904U 23083AE  26188.12847529  .00001102  00000+0  49576-4 0  9991
2 56904  43.0061 116.2490 0001438 264.2208  95.8480 15.27582125170069
STARLINK-6183           
1 56905U 23083AF  26188.15790697 -.00001504  00000+0 -45163-4 0  9994
2 56905  43.0028 115.6236 0001317 263.7657  96.3045 15.27565487170078
STARLINK-6098           
1 56906U 23083AG  26188.75409403  .00000365  00000+0  22806-4 0  9994
2 56906  43.0041 112.3487 0001234 272.1228  87.9482 15.27561127170160
STARLINK-6110           
1 56907U 23083AH  26188.22714272 -.00004052  00000+0 -13781-3 0  9990
2 56907  43.0025 115.2791 0001227 248.5406 111.5315 15.27575023170192
STARLINK-6186           
1 56908U 23083AJ  26188.17975612 -.00001499  00000+0 -44988-4 0  9998
2 56908  43.0032 115.7747 0001372 251.1286 108.9417 15.27560706170076
STARLINK-5999           
1 56909U 23083AK  26188.21829506 -.00000562  00000+0 -10920-4 0  9993
2 56909  43.0030 116.0653 0001397 264.2283  95.8409 15.27559314170184
STARLINK-6179           
1 56910U 23083AL  26188.18745044 -.00001278  00000+0 -36916-4 0  9993
2 56910  43.0051 115.8348 0001660 262.6994  97.3669 15.27575022170067
STARLINK-6116           
1 56911U 23083AM  26188.17203038 -.00001018  00000+0 -27503-4 0  9999
2 56911  43.0011 115.7175 0000888 255.6320 104.4433 15.27570505170078
STARLINK-5805           
1 56912U 23083AN  26188.19774447  .00001759  00000+0  73455-4 0  9996
2 56912  43.0029 115.9096 0001366 249.7755 110.2950 15.27565406170073
STARLINK-5950           
1 56913U 23083AP  26188.17588045 -.00018017  00000+0 -64553-3 0  9997
2 56913  43.0013 115.7485 0001379 279.0397  81.0298 15.27644077170071
STARLINK-5961           
1 56914U 23083AQ  26188.15661517 -.00006063  00000+0 -21091-3 0  9990
2 56914  43.0020 115.5999 0001557 271.2416  88.8257 15.27591579170070
STARLINK-5965           
1 56915U 23083AR  26188.18360829 -.00001298  00000+0 -37681-4 0  9994
2 56915  43.0019 115.8079 0000851 278.6134  81.4621 15.27569381170075
STARLINK-5973           
1 56916U 23083AS  26188.18232416  .00000357  00000+0  22529-4 0  9993
2 56916  43.0058 115.7855 0001728 241.1843 118.8835 15.27553112170040
STARLINK-5971           
1 56917U 23083AT  26188.72467847  .00000598  00000+0  31255-4 0  9995
2 56917  43.0025 112.9845 0001795 263.1926  96.8722 15.27573221170158
STARLINK-5951           
1 56918U 23083AU  26188.17074275 -.00000700  00000+0 -15912-4 0  9993
2 56918  43.0029 115.6998 0001175 255.2944 104.7777 15.27588757170076
STARLINK-5966           
1 56919U 23083AV  26188.16048105  .00003469  00000+0  13561-3 0  9996
2 56919  43.0003 115.6313 0000968 286.8322  73.2423 15.27558012170078
STARLINK-5960           
1 56920U 23083AW  26187.98230953 -.00002680  00000+0 -87948-4 0  9998
2 56920  43.0033 116.8667 0001067 267.4315  92.6414 15.27569886170049
