OBJECT_NAME,OBJECT_ID,EPOCH,MEAN_MOTION,ECCENTRICITY,INCLINATION,RA_OF_ASC_NODE,ARG_OF_PERICENTER,MEAN_ANOMALY,EPHEMERIS_TYPE,CLASSIFICATION_TYPE,NORAD_CAT_ID,ELEMENT_SET_NO,REV_AT_EPOCH,BSTAR,MEAN_MOTION_DOT,MEAN_MOTION_DDOT
STARLINK-6213,2023-083R,2026-07-07T05:15:16.130016,15.27573755,.00011395,43.0020,129.9144,253.8973,106.1753,0,U,56891,999,16991,-.23721293E-4,-.915E-5,0
STARLINK-6219,2023-083S,2026-07-07T04:52:34.219776,15.27560946,.00012078,43.0035,134.0658,262.8394,97.2320,0,U,56892,999,16986,-.40088487E-4,-.1364E-4,0
STARLINK-6216,2023-083T,2026-07-07T00:38:19.477248,15.27587048,.00013102,43.0035,131.0511,261.7178,98.3525,0,U,56893,999,17000,-.4023618E-5,-.373E-5,0
STARLINK-6144,2023-083U,2026-07-07T04:09:59.562720,15.27604907,.00009735,43.0032,133.8470,232.0210,128.0554,0,U,56894,999,16998,-.35191134E-3,-.994E-4,0
STARLINK-6208,2023-083V,2026-07-06T05:14:38.354208,15.27577534,.00015858,43.0012,139.5758,261.5987,98.4684,0,U,56895,999,16971,.19608239E-4,.277E-5,0
STARLINK-6202,2023-083W,2026-07-06T06:43:15.996000,15.27564176,.00013185,43.0024,139.1749,263.2491,96.8210,0,U,56896,999,16983,-.23246446E-4,-.901E-5,0
STARLINK-6200,2023-083X,2026-07-07T06:11:55.686624,15.27540982,.0000293,42.9994,133.6200,296.7096,63.3725,0,U,56897,999,16998,.1912905E-3,.5E-4,0
STARLINK-6205,2023-083Y,2026-07-07T04:35:28.347648,15.27582221,.00001011,42.9980,127.1548,182.5809,177.5043,0,U,56898,999,17005,.477283E-5,-.13E-5,0
STARLINK-6203,2023-083Z,2026-07-07T05:04:51.756096,15.27619109,.00013411,43.0027,126.4525,263.1342,96.9358,0,U,56899,999,17005,-.45099518E-3,-.12666E-3,0
STARLINK-6207,2023-083AA,2026-07-07T05:05:07.343520,15.27555100,.00011283,43.0024,116.0227,273.0604,87.0119,0,U,56900,999,17004,-.70120737E-4,-.2189E-4,0
STARLINK-6185,2023-083AB,2026-07-07T04:24:21.998016,15.27569058,.00013047,43.0015,127.0959,267.4784,92.5919,0,U,56901,999,17005,-.32785761E-4,-.1164E-4,0
STARLINK-6195,2023-083AC,2026-07-06T22:52:10.025184,15.27593742,.00017272,43.0022,117.5117,261.9210,98.1446,0,U,56902,999,17014,-.26147174E-3,-.7453E-4,0
STARLINK-6192,2023-083AD,2026-07-07T03:45:30.356640,15.27569003,.00017542,43.0038,126.8934,267.9108,92.1543,0,U,56903,999,17005,-.22079133E-4,-.87E-5,0
STARLINK-6193,2023-083AE,2026-07-07T03:05:00.265056,15.27582125,.0001438,43.0061,116.2490,264.2208,95.8480,0,U,56904,999,17006,.49576064E-4,.1102E-4,0
STARLINK-6183,2023-083AF,2026-07-07T03:47:23.162208,15.27565487,.00013174,43.0028,115.6236,263.7657,96.3045,0,U,56905,999,17007,-.45163087E-4,-.1504E-4,0
STARLINK-6098,2023-083AG,2026-07-07T18:05:53.724192,15.27561127,.0001234,43.0041,112.3487,272.1228,87.9482,0,U,56906,999,17016,.22806E-4,.365E-5,0
STARLINK-6110,2023-083AH,2026-07-07T05:27:05.131008,15.27575023,.00012277,43.0025,115.2791,248.5406,111.5315,0,U,56907,999,17019,-.13781337E-3,-.4052E-4,0
STARLINK-6186,2023-083AJ,2026-07-07T04:18:50.928768,15.27560706,.00013726,43.0032,115.7747,251.1286,108.9417,0,U,56908,999,17007,-.44987722E-4,-.1499E-4,0
STARLINK-5999,2023-083AK,2026-07-07T05:14:20.693184,15.27559314,.00013973,43.0030,116.0653,264.2283,95.8409,0,U,56909,999,17018,-.10920471E-4,-.562E-5,0
STARLINK-6179,2023-083AL,2026-07-07T04:29:55.718016,15.27575022,.00016606,43.0051,115.8348,262.6994,97.3669,0,U,56910,999,17006,-.36915978E-4,-.1278E-4,0
STARLINK-6116,2023-083AM,2026-07-07T04:07:43.424832,15.27570505,.00008889,43.0011,115.7175,255.6320,104.4433,0,U,56911,999,17007,-.2750292E-4,-.1018E-4,0
STARLINK-5805,2023-083AN,2026-07-07T04:44:45.122208,15.27565406,.00013661,43.0029,115.9096,249.7755,110.2950,0,U,56912,999,17007,.73455407E-4,.1759E-4,0
STARLINK-5950,2023-083AP,2026-07-07T04:13:16.070880,15.27644077,.00013791,43.0013,115.7485,279.0397,81.0298,0,U,56913,999,17007,-.6455253E-3,-.18017E-3,0
STARLINK-5961,2023-083AQ,2026-07-07T03:45:31.550688,15.27591579,.00015574,43.0020,115.5999,271.2416,88.8257,0,U,56914,999,17007,-.21090993E-3,-.6063E-4,0
STARLINK-5965,2023-083AR,2026-07-07T04:24:23.756256,15.27569381,.0000851,43.0019,115.8079,278.6134,81.4621,0,U,56915,999,17007,-.37680537E-4,-.1298E-4,0
STARLINK-5973,2023-083AS,2026-07-07T04:22:32.807424,15.27553112,.0001728,43.0058,115.7855,241.1843,118.8835,0,U,56916,999,17004,.22528774E-4,.357E-5,0
STARLINK-5971,2023-083AT,2026-07-07T17:23:32.219808,15.27573221,.0001795,43.0025,112.9845,263.1926,96.8722,0,U,56917,999,17015,.31255E-4,.598E-5,0
STARLINK-5951,2023-083AU,2026-07-07T04:05:52.173600,15.27588757,.0001175,43.0029,115.6998,255.2944,104.7777,0,U,56918,999,17007,-.1591242E-4,-.7E-5,0
STARLINK-5966,2023-083AV,2026-07-07T03:51:05.562720,15.27558012,.00009681,43.0003,115.6313,286.8322,73.2423,0,U,56919,999,17007,.13560893E-3,.3469E-4,0
STARLINK-5960,2023-083AW,2026-07-06T23:34:31.543392,15.27569886,.00010679,43.0033,116.8667,267.4315,92.6414,0,U,56920,999,17004,-.87947533E-4,-.268E-4,0
